{"fetched_at":"2026-07-07T18:29:46.995Z","source":"https://celestrak.org/NORAD/elements/gp.php?NAME=SENTINEL&FORMAT=JSON","constellation":"sentinel-3","records":[{"OBJECT_NAME":"SENTINEL-3A","OBJECT_ID":"2016-011A","EPOCH":"2026-07-07T11:37:06.462048","CLASSIFICATION_TYPE":"U","MEAN_MOTION":14.2673831,"ECCENTRICITY":0.000141,"INCLINATION":98.624,"RA_OF_ASC_NODE":255.5754,"ARG_OF_PERICENTER":92.6218,"MEAN_ANOMALY":267.5124,"EPHEMERIS_TYPE":0,"NORAD_CAT_ID":41335,"ELEMENT_SET_NO":999,"REV_AT_EPOCH":54095,"BSTAR":0.000048408,"MEAN_MOTION_DOT":7.4e-7,"MEAN_MOTION_DDOT":0},{"OBJECT_NAME":"SENTINEL-3B","OBJECT_ID":"2018-039A","EPOCH":"2026-07-07T04:14:28.024800","CLASSIFICATION_TYPE":"U","MEAN_MOTION":14.26740486,"ECCENTRICITY":0.0000963,"INCLINATION":98.6239,"RA_OF_ASC_NODE":255.4214,"ARG_OF_PERICENTER":118.9874,"MEAN_ANOMALY":241.1403,"EPHEMERIS_TYPE":0,"NORAD_CAT_ID":43437,"ELEMENT_SET_NO":999,"REV_AT_EPOCH":42697,"BSTAR":0.000051893,"MEAN_MOTION_DOT":8.2e-7,"MEAN_MOTION_DDOT":0}]}
